[
    {
        "Altitude(m)": 612502.2513507073,
        "Argument of Periapsis(deg)": 0.0,
        "Eccentricity": 0.0,
        "Inclination(deg)": 60.0,
        "Latitude(deg)": -28.136156739920857,
        "Longitude(deg)": -97.85176653416272,
        "Mean Anomaly(deg)": 327.2727,
        "RAAN(deg)": 20.0,
        "Satellite Name": "Test1 108",
        "Satellite Number": 108,
        "Semi-Major Axis(m)": 6980739.136638005,
        "Time(s)": 0
    },
    {
        "Altitude(m)": 612308.6986058885,
        "Argument of Periapsis(deg)": 0.00010418945913296404,
        "Eccentricity": 0.0,
        "Inclination(deg)": 60.0,
        "Latitude(deg)": -27.62321224344103,
        "Longitude(deg)": -97.49829145644655,
        "Mean Anomaly(deg)": 327.8928061454618,
        "RAAN(deg)": 19.99957995086026,
        "Satellite Name": "Test1 108",
        "Satellite Number": 108,
        "Semi-Major Axis(m)": 6980739.136638005,
        "Time(s)": 10
    },
    {
        "Altitude(m)": 612116.1147432738,
        "Argument of Periapsis(deg)": 0.0002083789182659281,
        "Eccentricity": 0.0,
        "Inclination(deg)": 60.0,
        "Latitude(deg)": -27.10909887657675,
        "Longitude(deg)": -97.1484675692603,
        "Mean Anomaly(deg)": 328.5129122909236,
        "RAAN(deg)": 19.999159901720517,
        "Satellite Name": "Test1 108",
        "Satellite Number": 108,
        "Semi-Major Axis(m)": 6980739.136638005,
        "Time(s)": 20
    },
    {
        "Altitude(m)": 611924.5693497513,
        "Argument of Periapsis(deg)": 0.00031256837739889213,
        "Eccentricity": 0.0,
        "Inclination(deg)": 60.0,
        "Latitude(deg)": -26.593850954993894,
        "Longitude(deg)": -96.80219045540467,
        "Mean Anomaly(deg)": 329.1330184363855,
        "RAAN(deg)": 19.99873985258077,
        "Satellite Name": "Test1 108",
        "Satellite Number": 108,
        "Semi-Major Axis(m)": 6980739.136638005,
        "Time(s)": 30
    },
    {
        "Altitude(m)": 611734.1314056028,
        "Argument of Periapsis(deg)": 0.0004167578365318562,
        "Eccentricity": 0.0,
        "Inclination(deg)": 60.0,
        "Latitude(deg)": -26.077501945005036,
        "Longitude(deg)": -96.45935741529766,
        "Mean Anomaly(deg)": 329.75312458184726,
        "RAAN(deg)": 19.998319803441028,
        "Satellite Name": "Test1 108",
        "Satellite Number": 108,
        "Semi-Major Axis(m)": 6980739.136638005,
        "Time(s)": 40
    },
    {
        "Altitude(m)": 611544.8692540047,
        "Argument of Periapsis(deg)": 0.0005209472956648203,
        "Eccentricity": 0.0,
        "Inclination(deg)": 60.0,
        "Latitude(deg)": -25.560084495970813,
        "Longitude(deg)": -96.11986841171523,
        "Mean Anomaly(deg)": 330.3732307273092,
        "RAAN(deg)": 19.997899754301287,
        "Satellite Name": "Test1 108",
        "Satellite Number": 108,
        "Semi-Major Axis(m)": 6980739.136638005,
        "Time(s)": 50
    },
    {
        "Altitude(m)": 611356.8505707883,
        "Argument of Periapsis(deg)": 0.0006251367547977843,
        "Eccentricity": 0.0,
        "Inclination(deg)": 60.0,
        "Latitude(deg)": -25.041630471599195,
        "Longitude(deg)": -95.7836255024112,
        "Mean Anomaly(deg)": 330.99333687277095,
        "RAAN(deg)": 19.997479705161545,
        "Satellite Name": "Test1 108",
        "Satellite Number": 108,
        "Semi-Major Axis(m)": 6980739.136638005,
        "Time(s)": 60
    },
    {
        "Altitude(m)": 611170.1423345208,
        "Argument of Periapsis(deg)": 0.0007293262139307483,
        "Eccentricity": 0.0,
        "Inclination(deg)": 60.0,
        "Latitude(deg)": -24.522170980178217,
        "Longitude(deg)": -95.45053227355037,
        "Mean Anomaly(deg)": 331.61344301823283,
        "RAAN(deg)": 19.9970596560218,
        "Satellite Name": "Test1 108",
        "Satellite Number": 108,
        "Semi-Major Axis(m)": 6980739.136638005,
        "Time(s)": 70
    },
    {
        "Altitude(m)": 610984.8107968852,
        "Argument of Periapsis(deg)": 0.0008335156730637124,
        "Eccentricity": 0.0,
        "Inclination(deg)": 60.0,
        "Latitude(deg)": -24.0017364037797,
        "Longitude(deg)": -95.12049478687968,
        "Mean Anomaly(deg)": 332.23354916369465,
        "RAAN(deg)": 19.99663960688206,
        "Satellite Name": "Test1 108",
        "Satellite Number": 108,
        "Semi-Major Axis(m)": 6980739.136638005,
        "Time(s)": 80
    },
    {
        "Altitude(m)": 610800.9214533974,
        "Argument of Periapsis(deg)": 0.0009377051321966765,
        "Eccentricity": 0.0,
        "Inclination(deg)": 60.0,
        "Latitude(deg)": -23.480356426471378,
        "Longitude(deg)": -94.79342101493015,
        "Mean Anomaly(deg)": 332.85365530915647,
        "RAAN(deg)": 19.996219557742315,
        "Satellite Name": "Test1 108",
        "Satellite Number": 108,
        "Semi-Major Axis(m)": 6980739.136638005,
        "Time(s)": 90
    },
    {
        "Altitude(m)": 610618.5390144676,
        "Argument of Periapsis(deg)": 0.0010418945913296407,
        "Eccentricity": 0.0,
        "Inclination(deg)": 60.0,
        "Latitude(deg)": -22.95806006157402,
        "Longitude(deg)": -94.4692202771574,
        "Mean Anomaly(deg)": 333.47376145461834,
        "RAAN(deg)": 19.995799508602573,
        "Satellite Name": "Test1 108",
        "Satellite Number": 108,
        "Semi-Major Axis(m)": 6980739.136638005,
        "Time(s)": 100
    },
    {
        "Altitude(m)": 610437.7273768287,
        "Argument of Periapsis(deg)": 0.0011460840504626045,
        "Eccentricity": 0.0,
        "Inclination(deg)": 60.0,
        "Latitude(deg)": -22.434875677996654,
        "Longitude(deg)": -94.14780418992105,
        "Mean Anomaly(deg)": 334.0938676000801,
        "RAAN(deg)": 19.99537945946283,
        "Satellite Name": "Test1 108",
        "Satellite Number": 108,
        "Semi-Major Axis(m)": 6980739.136638005,
        "Time(s)": 110
    },
    {
        "Altitude(m)": 610258.5495953326,
        "Argument of Periapsis(deg)": 0.0012502735095955685,
        "Eccentricity": 0.0,
        "Inclination(deg)": 60.0,
        "Latitude(deg)": -21.910831025686402,
        "Longitude(deg)": -93.82908610457291,
        "Mean Anomaly(deg)": 334.713973745542,
        "RAAN(deg)": 19.99495941032309,
        "Satellite Name": "Test1 108",
        "Satellite Number": 108,
        "Semi-Major Axis(m)": 6980739.136638005,
        "Time(s)": 120
    },
    {
        "Altitude(m)": 610081.0678551258,
        "Argument of Periapsis(deg)": 0.0013544629687285324,
        "Eccentricity": 0.0,
        "Inclination(deg)": 60.0,
        "Latitude(deg)": -21.385953260226618,
        "Longitude(deg)": -93.51298054654316,
        "Mean Anomaly(deg)": 335.3340798910038,
        "RAAN(deg)": 19.994539361183342,
        "Satellite Name": "Test1 108",
        "Satellite Number": 108,
        "Semi-Major Axis(m)": 6980739.136638005,
        "Time(s)": 130
    },
    {
        "Altitude(m)": 609905.3434442482,
        "Argument of Periapsis(deg)": 0.0014586524278614966,
        "Eccentricity": 0.0,
        "Inclination(deg)": 60.0,
        "Latitude(deg)": -20.860268966613965,
        "Longitude(deg)": -93.19940416830546,
        "Mean Anomaly(deg)": 335.9541860364656,
        "RAAN(deg)": 19.9941193120436,
        "Satellite Name": "Test1 108",
        "Satellite Number": 108,
        "Semi-Major Axis(m)": 6980739.136638005,
        "Time(s)": 140
    },
    {
        "Altitude(m)": 609731.4367266522,
        "Argument of Periapsis(deg)": 0.0015628418869944607,
        "Eccentricity": 0.0,
        "Inclination(deg)": 60.0,
        "Latitude(deg)": -20.33380418224922,
        "Longitude(deg)": -92.88827519047649,
        "Mean Anomaly(deg)": 336.57429218192743,
        "RAAN(deg)": 19.99369926290386,
        "Satellite Name": "Test1 108",
        "Satellite Number": 108,
        "Semi-Major Axis(m)": 6980739.136638005,
        "Time(s)": 150
    },
    {
        "Altitude(m)": 609559.4071156082,
        "Argument of Periapsis(deg)": 0.0016670313461274247,
        "Eccentricity": 0.0,
        "Inclination(deg)": 60.0,
        "Latitude(deg)": -19.80658441917096,
        "Longitude(deg)": -92.57951284392291,
        "Mean Anomaly(deg)": 337.19439832738925,
        "RAAN(deg)": 19.99327921376412,
        "Satellite Name": "Test1 108",
        "Satellite Number": 108,
        "Semi-Major Axis(m)": 6980739.136638005,
        "Time(s)": 160
    },
    {
        "Altitude(m)": 609389.3130476262,
        "Argument of Periapsis(deg)": 0.0017712208052603888,
        "Eccentricity": 0.0,
        "Inclination(deg)": 60.0,
        "Latitude(deg)": -19.278634685563095,
        "Longitude(deg)": -92.27303832574567,
        "Mean Anomaly(deg)": 337.81450447285107,
        "RAAN(deg)": 19.992859164624374,
        "Satellite Name": "Test1 108",
        "Satellite Number": 108,
        "Semi-Major Axis(m)": 6980739.136638005,
        "Time(s)": 170
    },
    {
        "Altitude(m)": 609221.2119567728,
        "Argument of Periapsis(deg)": 0.001875410264393353,
        "Eccentricity": 0.0,
        "Inclination(deg)": 60.0,
        "Latitude(deg)": -18.749979506565992,
        "Longitude(deg)": -91.96877424338496,
        "Mean Anomaly(deg)": 338.43461061831295,
        "RAAN(deg)": 19.99243911548463,
        "Satellite Name": "Test1 108",
        "Satellite Number": 108,
        "Semi-Major Axis(m)": 6980739.136638005,
        "Time(s)": 180
    },
    {
        "Altitude(m)": 609055.1602494916,
        "Argument of Periapsis(deg)": 0.0019795997235263173,
        "Eccentricity": 0.0,
        "Inclination(deg)": 60.0,
        "Latitude(deg)": -18.220642944419758,
        "Longitude(deg)": -91.66664405970828,
        "Mean Anomaly(deg)": 339.0547167637747,
        "RAAN(deg)": 19.992019066344888,
        "Satellite Name": "Test1 108",
        "Satellite Number": 108,
        "Semi-Major Axis(m)": 6980739.136638005,
        "Time(s)": 190
    }
]